GPS BIIA-23 (PRN 18)    
1 22877U 93068A   19231.90234884 -.00000039  00000-0  00000+0 0  9998
2 22877  54.7318  65.9541 0154361  81.3340 273.8903  2.00562999189142
GPS BIIR-2  (PRN 13)    
1 24876U 97035A   19232.80033448  .00000055  00000-0  00000+0 0  9997
2 24876  55.4605 195.9402 0034422  68.6640 291.6817  2.00564199161760
GPS BIIR-3  (PRN 11)    
1 25933U 99055A   19233.40414708 -.00000053  00000-0  00000+0 0  9994
2 25933  52.1635  43.0087 0165162 110.8133 250.5572  2.00557511145592
GPS BIIR-4  (PRN 20)    
1 26360U 00025A   19233.58647010 -.00000017  00000-0  00000+0 0  9991
2 26360  53.3652 121.7114 0045763 140.4165  40.8550  2.00569168141292
GPS BIIR-5  (PRN 28)    
1 26407U 00040A   19234.36992108 -.00000045  00000-0  00000+0 0  9999
2 26407  56.2122 313.9926 0192926 276.2085  82.3599  2.00560340139987
GPS BIIR-6  (PRN 14)    
1 26605U 00071A   19233.49949590  .00000055  00000-0  00000+0 0  9993
2 26605  55.0350 193.3346 0110142 249.7935 111.9629  2.00556134137563
GPS BIIR-8  (PRN 16)    
1 27663U 03005A   19231.22899425 -.00000050  00000-0  00000+0 0  9994
2 27663  56.2735 313.8917 0106154  32.3643 342.8180  2.00570054121287
GPS BIIR-9  (PRN 21)    
1 27704U 03010A   19233.50874292 -.00000033  00000-0  00000+0 0  9995
2 27704  54.4090  65.3378 0246815 278.6015 263.1596  2.00563288120123
GPS BIIR-10 (PRN 22)    
1 28129U 03058A   19233.99462758 -.00000017  00000-0  00000+0 0  9994
2 28129  53.1768 124.4670 0072177 285.2847  73.9841  2.00556816114830
GPS BIIR-11 (PRN 19)    
1 28190U 04009A   19234.46256951 -.00000061  00000-0  00000+0 0  9997
2 28190  56.2774  14.5383 0092810  84.8405 257.2198  2.00567460113027
GPS BIIR-12 (PRN 23)    
1 28361U 04023A   19231.34950726  .00000034  00000-0  00000+0 0  9997
2 28361  54.0526 187.7224 0134425 232.6406 295.8257  2.00551441111044
GPS BIIR-13 (PRN 02)    
1 28474U 04045A   19232.58115101 -.00000037  00000-0  00000+0 0  9997
2 28474  54.7637  65.1511 0191785 261.4019  73.5297  2.00552627108430
GPS BIIRM-1 (PRN 17)    
1 28874U 05038A   19234.43427203 -.00000062  00000-0  00000+0 0  9997
2 28874  56.3965  11.8991 0132582 262.3245  75.9258  2.00577566101870
GPS BIIRM-2 (PRN 31)    
1 29486U 06042A   19232.55683816  .00000048  00000-0  00000+0 0  9991
2 29486  54.9734 250.4614 0092857 359.5581 349.6591  2.00563501 94543
GPS BIIRM-3 (PRN 12)    
1 29601U 06052A   19234.51233845 -.00000042  00000-0  00000+0 0  9997
2 29601  56.2530 312.6797 0072929  62.6228 298.1779  2.00573456 93503
GPS BIIRM-4 (PRN 15)    
1 32260U 07047A   19233.83067969  .00000041  00000-0  00000+0 0  9991
2 32260  53.1754 183.2511 0114755  45.1023 315.8079  2.00554870 86861
GPS BIIRM-5 (PRN 29)    
1 32384U 07062A   19232.89632253 -.00000067  00000-0  00000+0 0  9993
2 32384  56.4827  12.6050 0010013 115.8106  64.2038  2.00560275 85581
GPS BIIRM-6 (PRN 07)    
1 32711U 08012A   19234.23713267  .00000065  00000-0  00000+0 0  9995
2 32711  54.7141 249.5686 0132749 221.1178 137.9120  2.00556204 83790
GPS BIIRM-8 (PRN 05)    
1 35752U 09043A   19233.96992846 -.00000014  00000-0  00000+0 0  9994
2 35752  54.4530 127.2295 0056934  42.0494 150.6659  2.00554448 73377
GPS BIIF-1  (PRN 25)    
1 36585U 10022A   19231.61438787 -.00000044  00000-0  00000+0 0  9990
2 36585  55.5326 309.0479 0082006  50.7074 344.5503  2.00563985 67573
GPS BIIF-2  (PRN 01)    
1 37753U 11036A   19232.94046392 -.00000030  00000-0  00000+0 0  9993
2 37753  55.9616  69.1755 0089418  42.0524 319.4676  2.00566955 59287
GPS BIIF-3  (PRN 24)    
1 38833U 12053A   19231.43233809  .00000038  00000-0  00000+0 0  9994
2 38833  53.7519 245.8215 0083936  33.1974 327.3582  2.00559580 50313
GPS BIIF-4  (PRN 27)    
1 39166U 13023A   19233.78220320 -.00000067  00000-0  00000+0 0  9999
2 39166  56.0755   8.6765 0070602  28.0538 332.3363  2.00566837 45906
GPS BIIF-5  (PRN 30)    
1 39533U 14008A   19234.27911189  .00000062  00000-0  00000+0 0  9990
2 39533  53.8787 251.1070 0042616 196.3568 163.5451  2.00552455 40272
GPS BIIF-6  (PRN 06)    
1 39741U 14026A   19234.06012104 -.00000025  00000-0  00000+0 0  9997
2 39741  55.9414  68.6570 0015811 292.6073  67.2884  2.00567688 38559
GPS BIIF-7  (PRN 09)    
1 40105U 14045A   19234.15263880  .00000049  00000-0  00000+0 0  9998
2 40105  54.5788 187.9495 0010794  98.4764 261.6310  2.00570269 37001
GPS BIIF-8  (PRN 03)    
1 40294U 14068A   19231.53158898 -.00000007  00000-0  00000+0 0  9998
2 40294  55.2040 128.9331 0023068  35.5468 324.6686  2.00557166 35177
GPS BIIF-9  (PRN 26)    
1 40534U 15013A   19231.66771346 -.00000044  00000-0  00000+0 0  9990
2 40534  54.4578 307.3203 0037745   4.4612 355.6415  2.00565681 32245
GPS BIIF-10  (PRN 08)   
1 40730U 15033A   19233.82797036 -.00000068  00000-0  00000+0 0  9990
2 40730  55.5976   7.9853 0044346 344.1979  15.6767  2.00579362 30046
GPS BIIF-11  (PRN 10)   
1 41019U 15062A   19233.87146431 -.00000012  00000-0  00000+0 0  9994
2 41019  55.2048 128.6571 0048429 206.4182 153.3955  2.00564662 27866
GPS BIIF-12  (PRN 32)   
1 41328U 16007A   19233.96345612  .00000050  00000-0  00000+0 0  9990
2 41328  54.8210 188.3639 0033697 220.5429 139.1907  2.00569760 25923
